ONEWEB-0080             
1 45426U 20020C   24253.95407034  .00000734  00000+0  20357-2 0  9995
2 45426  87.8980 149.5637 0001694  88.7290 271.4032 13.11413880218136
ONEWEB-0090             
1 45427U 20020D   24254.19990707 -.00000375  00000+0 -10942-2 0  9999
2 45427  87.8985 149.5017 0001792  75.3685 284.7641 13.11419892218146
ONEWEB-0061             
1 45428U 20020E   24254.68976408  .00000296  00000+0  79878-3 0  9990
2 45428  87.8981 149.3993 0001759  75.0196 285.1127 13.11421411218156
ONEWEB-0081             
1 45429U 20020F   24253.75569789 -.00000288  00000+0 -84769-3 0  9996
2 45429  87.8986 149.6026 0001543  73.1681 286.9616 13.11419305218141
ONEWEB-0069             
1 45430U 20020G   24254.27959992 -.00000482  00000+0 -13944-2 0  9997
2 45430  87.8981 149.4880 0001841  77.1541 282.9793 13.11417728218154
ONEWEB-0031             
1 45431U 20020H   24253.94560668  .00000392  00000+0  10705-2 0  9999
2 45431  87.8988 149.5675 0001841  73.5010 286.6320 13.11419540218089
ONEWEB-0027             
1 45432U 20020J   24254.38014706  .00000141  00000+0  32964-3 0  9990
2 45432  87.9145 134.2912 0002077  74.8850 285.2511 13.17651143221443
ONEWEB-0064             
1 45433U 20020K   24254.78319387  .00000443  00000+0  12132-2 0  9997
2 45433  87.8982 149.4068 0002041  77.9226 282.2131 13.11418134218237
